GSAT0101 (PRN E11)      
1 37846U 11060A   23121.18121053 -.00000089  00000+0  00000+0 0  9992
2 37846  57.0857  12.7133 0004305  26.6626 333.3967  1.70476132 71631
GSAT0102 (PRN E12)      
1 37847U 11060B   23120.86547244 -.00000090  00000+0  00000+0 0  9993
2 37847  57.0864  12.7215 0004462 358.9563 213.8821  1.70475483 71635
GSAT0103 (PRN E19)      
1 38857U 12055A   23120.04694842  .00000077  00000+0  00000+0 0  9991
2 38857  55.2386 132.9910 0005863 270.0604  89.9202  1.70473781 65502
GSAT0104 (PRN E20)      
1 38858U 12055B   23121.77634749  .00000088  00000+0  00000+0 0  9995
2 38858  55.2393 132.9450 0003326 269.5305  90.4821  1.70474003 65538
GSAT0201 (PRN E18)      
1 40128U 14050A   23120.13997217 -.00000063  00000+0  00000+0 0  9990
2 40128  50.0470 319.6483 1612425 135.4987 238.6544  1.85519247 57090
GSAT0202 (PRN E14)      
1 40129U 14050B   23120.93881040 -.00000061  00000+0  00000+0 0  9993
2 40129  50.0670 318.6852 1609983 136.3403 237.5964  1.85519837 59271
GSAT0203 (PRN E26)      
1 40544U 15017A   23121.54730343 -.00000088  00000+0  00000+0 0  9994
2 40544  56.8811  12.6932 0002214 298.8219  61.1938  1.70475770 49727
GSAT0204 (PRN E22)      
1 40545U 15017B   23120.62750087 -.00000091  00000+0  00000+0 0  9994
2 40545  56.8869  12.7319 0001416 280.9068  79.1128  1.70475614 12758
GSAT0205 (PRN E24)      
1 40889U 15045A   23120.98202620 -.00000018  00000+0  00000+0 0  9999
2 40889  55.4318 253.1879 0004722  34.5932 325.3999  1.70473916 47529
GSAT0206 (PRN E30)      
1 40890U 15045B   23121.78930449 -.00000017  00000+0  00000+0 0  9996
2 40890  55.4302 253.1613 0002711  33.4489 326.5293  1.70473976 47561
GSAT0209 (PRN E09)      
1 41174U 15079A   23119.02836467  .00000069  00000+0  00000+0 0  9994
2 41174  55.2552 132.7248 0005455 302.0319  57.9592  1.70474735 45258
GSAT0208 (PRN E08)      
1 41175U 15079B   23121.59425877  .00000087  00000+0  00000+0 0  9999
2 41175  55.2548 132.6526 0004812 301.1544  58.8485  1.70474591 45877
GSAT0211 (PRN E02)      
1 41549U 16030A   23121.12840152 -.00000018  00000+0  00000+0 0  9993
2 41549  55.5777 253.1463 0002746 353.6434   6.3152  1.70474007 43185
GSAT0210 (PRN E01)      
1 41550U 16030B   23120.83334187 -.00000018  00000+0  00000+0 0  9998
2 41550  55.5771 253.1556 0001479 297.9208  62.0269  1.70473962 43171
GSAT0207 (PRN E07)      
1 41859U 16069A   23121.66863592  .00000086  00000+0  00000+0 0  9995
2 41859  54.9211 132.7550 0005887 292.5448  67.4433  1.70474655 40141
GSAT0212 (PRN E03)      
1 41860U 16069B   23122.10996002  .00000089  00000+0  00000+0 0  9993
2 41860  54.9170 132.7398 0004150 306.7330  53.2793  1.70473258 40181
GSAT0213 (PRN E04)      
1 41861U 16069C   23121.30195500  .00000084  00000+0  00000+0 0  9994
2 41861  54.9181 132.7680 0005824 275.8527  84.1310  1.70473447 40167
GSAT0214 (PRN E05)      
1 41862U 16069D   23121.44910093  .00000085  00000+0  00000+0 0  9993
2 41862  54.9166 132.7581 0004854 278.9676  81.0277  1.70473351 40164
GSAT0215 (PRN E21)      
1 43055U 17079A   23121.35227532 -.00000018  00000+0  00000+0 0  9997
2 43055  55.5536 252.9679 0000877 288.9300  71.0224  1.70474724 33503
GSAT0216 (PRN E25)      
1 43056U 17079B   23121.05769894 -.00000018  00000+0  00000+0 0  9997
2 43056  55.5543 252.9757 0002569 286.7091  73.2251  1.70474797 33517
GSAT0217 (PRN E27)      
1 43057U 17079C   23120.69144137 -.00000018  00000+0  00000+0 0  9994
2 43057  55.5524 252.9851 0002316 314.2298  45.7142  1.70474739 33494
GSAT0218 (PRN E31)      
1 43058U 17079D   23120.91146881 -.00000018  00000+0  00000+0 0  9998
2 43058  55.5527 252.9765 0002976 280.1971  79.7319  1.70474729 33529
GSAT0221 (PRN E15)      
1 43564U 18060A   23121.39725120 -.00000088  00000+0  00000+0 0  9990
2 43564  57.2621  12.5937 0003509 313.1987  46.8100  1.70475637 29687
GSAT0222 (PRN E33)      
1 43565U 18060B   23119.85739789 -.00000093  00000+0  00000+0 0  9991
2 43565  57.2639  12.6361 0003392 326.1730  33.8397  1.70475521 29708
GSAT0219 (PRN E36)      
1 43566U 18060C   23120.07790995 -.00000093  00000+0  00000+0 0  9994
2 43566  57.2644  12.6321 0003177 331.1663  28.8509  1.70475608 29685
GSAT0220 (PRN E13)      
1 43567U 18060D   23120.29824450 -.00000092  00000+0  00000+0 0  9992
2 43567  57.2645  12.6270 0003301 321.4251  38.5866  1.70475681 29678
GSAT0223 (PRN E34)      
1 49809U 21116A   23120.43306642 -.00000091  00000+0  00000+0 0  9996
2 49809  57.2561  12.5200 0000386  92.8355  80.1272  1.70475775  8682
GSAT0224 (PRN E10)      
1 49810U 21116B   23121.44036951 -.00000087  00000+0  00000+0 0  9998
2 49810  57.2571  12.4911 0001023  59.0690 124.5739  1.70475740  8727
